[{"OBJECT_NAME":"YAOGAN-40 03A","OBJECT_ID":"2025-199A","EPOCH":"2026-03-09T23:03:31.278816","MEAN_MOTION":14.26419606,"ECCENTRICITY":0.00148498,"INCLINATION":85.9829,"RA_OF_ASC_NODE":86.7514,"ARG_OF_PERICENTER":35.6299,"MEAN_ANOMALY":324.588,"EPHEMERIS_TYPE":0,"CLASSIFICATION_TYPE":"U","NORAD_CAT_ID":65544,"ELEMENT_SET_NO":999,"REV_AT_EPOCH":2627,"BSTAR":0.00017546994,"MEAN_MOTION_DOT":4.42e-6,"MEAN_MOTION_DDOT":0},{"OBJECT_NAME":"FENGYUN 1C DEB","OBJECT_ID":"1999-025AXV","EPOCH":"2026-03-08T23:01:14.257056","MEAN_MOTION":14.14623517,"ECCENTRICITY":0.01113558,"INCLINATION":98.3503,"RA_OF_ASC_NODE":104.5641,"ARG_OF_PERICENTER":326.1099,"MEAN_ANOMALY":151.7198,"EPHEMERIS_TYPE":0,"CLASSIFICATION_TYPE":"U","NORAD_CAT_ID":30883,"ELEMENT_SET_NO":999,"REV_AT_EPOCH":98136,"BSTAR":0.00020077288,"MEAN_MOTION_DOT":3.69e-6,"MEAN_MOTION_DDOT":0}]
